{
  "norad_id": 53609,
  "name": "STARLINK-4660",
  "history": [
    {
      "epoch": "2026-03-28T14:19:19.089408Z",
      "apogee_km": 540.5686926666003,
      "perigee_km": 538.8987186782506,
      "latitude_deg": -1.4677319089023845e-05,
      "longitude_deg": 113.09943170034587,
      "height_km": 540.6804189088843,
      "semi_major_axis_km": 6917.870705672425,
      "eccentricity": 0.0001207,
      "inclination_deg": 53.216,
      "raan_deg": 153.9439,
      "arg_perigee_deg": 93.4976,
      "mean_anomaly_deg": 266.6154,
      "mean_motion_rev_day": 15.08843168
    }
  ]
}