{"fetched_at":"2026-03-29T16:36:15Z","count":15609,"tles":[{"name":"STARLINK-4660","line1":"1 53609U 22104X   26087.59674872  .00000553  00000+0  52853-4 0  9992","line2":"2 53609  53.2160 153.9439 0001207  93.4976 266.6154 15.08843168198545","category":"Starlink"}]}